CCSDS_OMM_VERS = 2.0
CREATION_DATE  = 
ORIGINATOR     = 

OBJECT_NAME    = ATLAS CENTAUR R/B
OBJECT_ID      = 1972-065B
CENTER_NAME    = EARTH
REF_FRAME      = TEME
TIME_SYSTEM    = UTC
MEAN_ELEMENT_THEORY = SGP/SGP4

EPOCH          = 2026-02-15T11:07:34.983840
MEAN_MOTION    = 14.77619989
ECCENTRICITY   = .00338225
INCLINATION    = 35.0015
RA_OF_ASC_NODE = 75.9976
ARG_OF_PERICENTER = 184.2290
MEAN_ANOMALY   = 175.8128

EPHEMERIS_TYPE = 0
CLASSIFICATION_TYPE = U
NORAD_CAT_ID   = 6155
ELEMENT_SET_NO = 999
REV_AT_EPOCH   = 83797
BSTAR          = .18884276E-3
MEAN_MOTION_DOT = .1362E-4
MEAN_MOTION_DDOT = 0

CCSDS_OMM_VERS = 2.0
CREATION_DATE  = 
ORIGINATOR     = 

OBJECT_NAME    = SL-8 R/B
OBJECT_ID      = 1975-112B
CENTER_NAME    = EARTH
REF_FRAME      = TEME
TIME_SYSTEM    = UTC
MEAN_ELEMENT_THEORY = SGP/SGP4

EPOCH          = 2026-02-16T03:33:30.858048
MEAN_MOTION    = 14.38192183
ECCENTRICITY   = .0015112
INCLINATION    = 74.0591
RA_OF_ASC_NODE = 58.5403
ARG_OF_PERICENTER = 159.8618
MEAN_ANOMALY   = 200.3136

EPHEMERIS_TYPE = 0
CLASSIFICATION_TYPE = U
NORAD_CAT_ID   = 8459
ELEMENT_SET_NO = 999
REV_AT_EPOCH   = 62877
BSTAR          = .68815E-4
MEAN_MOTION_DOT = .183E-5
MEAN_MOTION_DDOT = 0

CCSDS_OMM_VERS = 2.0
CREATION_DATE  = 
ORIGINATOR     = 

OBJECT_NAME    = SL-3 R/B
OBJECT_ID      = 1977-057B
CENTER_NAME    = EARTH
REF_FRAME      = TEME
TIME_SYSTEM    = UTC
MEAN_ELEMENT_THEORY = SGP/SGP4

EPOCH          = 2026-02-16T03:41:23.401248
MEAN_MOTION    = 15.44854437
ECCENTRICITY   = .0007468
INCLINATION    = 97.5733
RA_OF_ASC_NODE = 218.1417
ARG_OF_PERICENTER = 9.8675
MEAN_ANOMALY   = 350.2718

EPHEMERIS_TYPE = 0
CLASSIFICATION_TYPE = U
NORAD_CAT_ID   = 10114
ELEMENT_SET_NO = 999
REV_AT_EPOCH   = 66500
BSTAR          = .30182E-3
MEAN_MOTION_DOT = .14087E-3
MEAN_MOTION_DDOT = 0

CCSDS_OMM_VERS = 2.0
CREATION_DATE  = 
ORIGINATOR     = 

OBJECT_NAME    = SEASAT 1
OBJECT_ID      = 1978-064A
CENTER_NAME    = EARTH
REF_FRAME      = TEME
TIME_SYSTEM    = UTC
MEAN_ELEMENT_THEORY = SGP/SGP4

EPOCH          = 2026-02-16T01:15:44.170848
MEAN_MOTION    = 14.46142901
ECCENTRICITY   = .0001731
INCLINATION    = 108.0158
RA_OF_ASC_NODE = 80.0926
ARG_OF_PERICENTER = 292.0124
MEAN_ANOMALY   = 68.0838

EPHEMERIS_TYPE = 0
CLASSIFICATION_TYPE = U
NORAD_CAT_ID   = 10967
ELEMENT_SET_NO = 999
REV_AT_EPOCH   = 50338
BSTAR          = .11966E-3
MEAN_MOTION_DOT = .29E-5
MEAN_MOTION_DDOT = 0

CCSDS_OMM_VERS = 2.0
CREATION_DATE  = 
ORIGINATOR     = 

OBJECT_NAME    = SL-14 R/B
OBJECT_ID      = 1979-011B
CENTER_NAME    = EARTH
REF_FRAME      = TEME
TIME_SYSTEM    = UTC
MEAN_ELEMENT_THEORY = SGP/SGP4

EPOCH          = 2026-02-16T04:26:20.646816
MEAN_MOTION    = 14.91882166
ECCENTRICITY   = .0017367
INCLINATION    = 82.5240
RA_OF_ASC_NODE = 116.9772
ARG_OF_PERICENTER = 126.3852
MEAN_ANOMALY   = 233.8973

EPHEMERIS_TYPE = 0
CLASSIFICATION_TYPE = U
NORAD_CAT_ID   = 11267
ELEMENT_SET_NO = 999
REV_AT_EPOCH   = 52557
BSTAR          = .61844E-4
MEAN_MOTION_DOT = .652E-5
MEAN_MOTION_DDOT = 0

CCSDS_OMM_VERS = 2.0
CREATION_DATE  = 
ORIGINATOR     = 

OBJECT_NAME    = SL-8 R/B
OBJECT_ID      = 1979-089B
CENTER_NAME    = EARTH
REF_FRAME      = TEME
TIME_SYSTEM    = UTC
MEAN_ELEMENT_THEORY = SGP/SGP4

EPOCH          = 2026-02-16T04:11:28.578048
MEAN_MOTION    = 14.42337258
ECCENTRICITY   = .0016786
INCLINATION    = 74.0693
RA_OF_ASC_NODE = 130.8706
ARG_OF_PERICENTER = 305.9723
MEAN_ANOMALY   = 53.9876

EPHEMERIS_TYPE = 0
CLASSIFICATION_TYPE = U
NORAD_CAT_ID   = 11574
ELEMENT_SET_NO = 999
REV_AT_EPOCH   = 43300
BSTAR          = .92608E-4
MEAN_MOTION_DOT = .28E-5
MEAN_MOTION_DDOT = 0

CCSDS_OMM_VERS = 2.0
CREATION_DATE  = 
ORIGINATOR     = 

OBJECT_NAME    = SL-14 R/B
OBJECT_ID      = 1980-005B
CENTER_NAME    = EARTH
REF_FRAME      = TEME
TIME_SYSTEM    = UTC
MEAN_ELEMENT_THEORY = SGP/SGP4

EPOCH          = 2026-02-15T20:21:30.908160
MEAN_MOTION    = 14.90902112
ECCENTRICITY   = .0014338
INCLINATION    = 82.5173
RA_OF_ASC_NODE = 327.9489
ARG_OF_PERICENTER = 233.1554
MEAN_ANOMALY   = 126.8351

EPHEMERIS_TYPE = 0
CLASSIFICATION_TYPE = U
NORAD_CAT_ID   = 11672
ELEMENT_SET_NO = 999
REV_AT_EPOCH   = 47323
BSTAR          = .67964E-4
MEAN_MOTION_DOT = .696E-5
MEAN_MOTION_DDOT = 0

CCSDS_OMM_VERS = 2.0
CREATION_DATE  = 
ORIGINATOR     = 

OBJECT_NAME    = SL-8 R/B
OBJECT_ID      = 1981-003B
CENTER_NAME    = EARTH
REF_FRAME      = TEME
TIME_SYSTEM    = UTC
MEAN_ELEMENT_THEORY = SGP/SGP4

EPOCH          = 2026-02-16T03:21:15.828192
MEAN_MOTION    = 15.10175786
ECCENTRICITY   = .0262573
INCLINATION    = 82.9401
RA_OF_ASC_NODE = 309.9371
ARG_OF_PERICENTER = 253.7614
MEAN_ANOMALY   = 103.4586

EPHEMERIS_TYPE = 0
CLASSIFICATION_TYPE = U
NORAD_CAT_ID   = 12139
ELEMENT_SET_NO = 999
REV_AT_EPOCH   = 31142
BSTAR          = .41733E-3
MEAN_MOTION_DOT = .15825E-3
MEAN_MOTION_DDOT = 0

CCSDS_OMM_VERS = 2.0
CREATION_DATE  = 
ORIGINATOR     = 

OBJECT_NAME    = SL-3 R/B
OBJECT_ID      = 1981-046B
CENTER_NAME    = EARTH
REF_FRAME      = TEME
TIME_SYSTEM    = UTC
MEAN_ELEMENT_THEORY = SGP/SGP4

EPOCH          = 2026-02-16T04:06:26.013024
MEAN_MOTION    = 15.41389985
ECCENTRICITY   = .0020801
INCLINATION    = 81.2345
RA_OF_ASC_NODE = 315.5672
ARG_OF_PERICENTER = 93.2073
MEAN_ANOMALY   = 267.1550

EPHEMERIS_TYPE = 0
CLASSIFICATION_TYPE = U
NORAD_CAT_ID   = 12465
ELEMENT_SET_NO = 999
REV_AT_EPOCH   = 43511
BSTAR          = .35211E-3
MEAN_MOTION_DOT = .14859E-3
MEAN_MOTION_DDOT = 0

CCSDS_OMM_VERS = 2.0
CREATION_DATE  = 
ORIGINATOR     = 

OBJECT_NAME    = SL-3 R/B
OBJECT_ID      = 1981-103B
CENTER_NAME    = EARTH
REF_FRAME      = TEME
TIME_SYSTEM    = UTC
MEAN_ELEMENT_THEORY = SGP/SGP4

EPOCH          = 2026-02-16T03:09:46.330272
MEAN_MOTION    = 15.21107341
ECCENTRICITY   = .001331
INCLINATION    = 81.1556
RA_OF_ASC_NODE = 238.7201
ARG_OF_PERICENTER = 2.2801
MEAN_ANOMALY   = 357.8488

EPHEMERIS_TYPE = 0
CLASSIFICATION_TYPE = U
NORAD_CAT_ID   = 12904
ELEMENT_SET_NO = 999
REV_AT_EPOCH   = 96995
BSTAR          = .28694E-3
MEAN_MOTION_DOT = .6421E-4
MEAN_MOTION_DDOT = 0

CCSDS_OMM_VERS = 2.0
CREATION_DATE  = 
ORIGINATOR     = 

OBJECT_NAME    = SL-3 R/B
OBJECT_ID      = 1982-013B
CENTER_NAME    = EARTH
REF_FRAME      = TEME
TIME_SYSTEM    = UTC
MEAN_ELEMENT_THEORY = SGP/SGP4

EPOCH          = 2026-02-16T03:34:40.695168
MEAN_MOTION    = 15.21770045
ECCENTRICITY   = .0021714
INCLINATION    = 81.1750
RA_OF_ASC_NODE = 186.0075
ARG_OF_PERICENTER = 251.8171
MEAN_ANOMALY   = 108.0697

EPHEMERIS_TYPE = 0
CLASSIFICATION_TYPE = U
NORAD_CAT_ID   = 13068
ELEMENT_SET_NO = 999
REV_AT_EPOCH   = 40107
BSTAR          = .22887E-3
MEAN_MOTION_DOT = .5247E-4
MEAN_MOTION_DDOT = 0

CCSDS_OMM_VERS = 2.0
CREATION_DATE  = 
ORIGINATOR     = 

OBJECT_NAME    = SL-3 R/B
OBJECT_ID      = 1982-039B
CENTER_NAME    = EARTH
REF_FRAME      = TEME
TIME_SYSTEM    = UTC
MEAN_ELEMENT_THEORY = SGP/SGP4

EPOCH          = 2026-02-16T02:53:53.227680
MEAN_MOTION    = 15.09956106
ECCENTRICITY   = .003004
INCLINATION    = 81.1594
RA_OF_ASC_NODE = 240.8252
ARG_OF_PERICENTER = 34.9649
MEAN_ANOMALY   = 325.3540

EPHEMERIS_TYPE = 0
CLASSIFICATION_TYPE = U
NORAD_CAT_ID   = 13154
ELEMENT_SET_NO = 999
REV_AT_EPOCH   = 37838
BSTAR          = .16084E-3
MEAN_MOTION_DOT = .266E-4
MEAN_MOTION_DDOT = 0

