ATLAS CENTAUR R/B       
1 06155U 72065B   26046.46359935  .00001362  00000+0  18884-3 0  9992
2 06155  35.0015  75.9976 0033822 184.2290 175.8128 14.77619989837977
SL-8 R/B                
1 08459U 75112B   26047.14827382  .00000183  00000+0  68815-4 0  9999
2 08459  74.0591  58.5403 0015112 159.8618 200.3136 14.38192183628772
SL-3 R/B                
1 10114U 77057B   26047.15374307  .00014087  00000+0  30182-3 0  9998
2 10114  97.5733 218.1417 0007468   9.8675 350.2718 15.44854437665005
SEASAT 1                
1 10967U 78064A   26047.05259457  .00000290  00000+0  11966-3 0  9990
2 10967 108.0158  80.0926 0001731 292.0124  68.0838 14.46142901503389
SL-14 R/B               
1 11267U 79011B   26047.18496119  .00000652  00000+0  61844-4 0  9992
2 11267  82.5240 116.9772 0017367 126.3852 233.8973 14.91882166525579
SL-8 R/B                
1 11574U 79089B   26047.17463632  .00000280  00000+0  92608-4 0  9990
2 11574  74.0693 130.8706 0016786 305.9723  53.9876 14.42337258433008
SL-14 R/B               
1 11672U 80005B   26046.84827440  .00000696  00000+0  67964-4 0  9991
2 11672  82.5173 327.9489 0014338 233.1554 126.8351 14.90902112473233
SL-8 R/B                
1 12139U 81003B   26047.13976653  .00015825  00000+0  41733-3 0  9998
2 12139  82.9401 309.9371 0262573 253.7614 103.4586 15.10175786311426
SL-3 R/B                
1 12465U 81046B   26047.17113441  .00014859  00000+0  35211-3 0  9999
2 12465  81.2345 315.5672 0020801  93.2073 267.1550 15.41389985435110
SL-3 R/B                
1 12904U 81103B   26047.13178623  .00006421  00000+0  28694-3 0  9993
2 12904  81.1556 238.7201 0013310   2.2801 357.8488 15.21107341969954
SL-3 R/B                
1 13068U 82013B   26047.14908212  .00005247  00000+0  22887-3 0  9995
2 13068  81.1750 186.0075 0021714 251.8171 108.0697 15.21770045401074
SL-3 R/B                
1 13154U 82039B   26047.12075495  .00002660  00000+0  16084-3 0  9993
2 13154  81.1594 240.8252 0030040  34.9649 325.3540 15.09956106378382
